ORBCOMM FM05            
1 25117U 97084F   24181.52873148  .00002582  00000+0  80610-3 0  9992
2 25117  45.0150 257.7068 0004805 255.6086 104.4231 14.42995336389615
ORBCOMM FM06            
1 25118U 97084G   24182.25256860  .00002817  00000+0  87421-3 0  9998
2 25118  45.0139 254.3889 0004066 265.2886 123.2827 14.43075248390659
ORBCOMM FM07            
1 25119U 97084H   24182.17221899  .00002751  00000+0  85631-3 0  9992
2 25119  45.0134 255.3419 0005445 251.4261 108.5998 14.42977306390639
ORBCOMM FM03            
1 25158U 98007B   24181.80619603  .00002526  00000+0  97002-3 0  9999
2 25158 107.9690 132.7088 0045806 145.1671 215.2480 14.32365734373544
ORBCOMM FM04            
1 25159U 98007C   24181.78544531  .00002557  00000+0  97796-3 0  9998
2 25159 107.9676 135.6379 0041368 142.9427 217.4580 14.32637983373719
ORBCOMM FM17            
1 25413U 98046A   24181.81833007  .00001852  00000+0  71689-3 0  9997
2 25413  44.9946 118.4883 0002750 281.2683  78.7855 14.33326376352581
ORBCOMM FM18            
1 25414U 98046B   24182.34084177  .00002419  00000+0  87036-3 0  9996
2 25414  44.9946  42.0306 0003668 311.3558  48.6973 14.36153937353794
ORBCOMM FM19            
1 25415U 98046C   24182.13165615  .00002169  00000+0  78822-3 0  9996
2 25415  44.9955  44.4995 0002475 301.9238 200.7293 14.35985032353750
